NORAD_CAT_ID,OBJECT_NAME,OBJECT_TYPE,EPOCH,MEAN_MOTION,ECCENTRICITY,INCLINATION,RA_OF_ASC_NODE,ARG_OF_PERICENTER,MEAN_ANOMALY,BSTAR,MEAN_MOTION_DOT,MEAN_MOTION_DDOT,TLE_LINE0,TLE_LINE1,TLE_LINE2,SEMIMAJOR_AXIS,PERIOD,APOGEE,PERIGEE,DECAYED
56494.0,STARLINK-5530,PAYLOAD,2024-03-03 14:20:42,14.98327589,0.0002757,70.0027,160.385,255.8089,104.2764,-2.1651e-05,-3.51e-06,0.0,0 STARLINK-5530,1 56494U 23064AY  24063.59771254 -.00000351  00000-0 -21651-4 0  9998,2 56494  70.0027 160.3850 0002757 255.8089 104.2764 14.98327589 45972,6950.2,96.107,573.982,570.149,0.0
56494.0,STARLINK-5530,PAYLOAD,2024-03-03 15:56:50,14.98327304,0.0002781,70.0025,160.2163,259.2731,100.8115,-2.5534e-05,-3.98e-06,0.0,0 STARLINK-5530,1 56494U 23064AY  24063.66447305 -.00000398  00000-0 -25534-4 0  9998,2 56494  70.0025 160.2163 0002781 259.2731 100.8115 14.98327304 45983,6950.201,96.107,573.999,570.133,0.0
56494.0,STARLINK-5530,PAYLOAD,2024-03-04 11:10:26,14.98337193,0.0002865,70.0019,158.1946,266.6293,93.4538,7.4469e-05,7.96e-06,0.0,0 STARLINK-5530,1 56494U 23064AY  24064.46558165  .00000796  00000-0  74469-4 0  9995,2 56494  70.0019 158.1946 0002865 266.6293  93.4538 14.98337193 46466,6950.171,96.107,574.027,570.044,0.0
56494.0,STARLINK-5530,PAYLOAD,2024-03-04 14:22:41,14.98341318,0.0002857,70.002,157.858,267.6521,92.4311,0.00016343,1.858e-05,0.0,0 STARLINK-5530,1 56494U 23064AY  24064.59909541  .00001858  00000-0  16343-3 0  9993,2 56494  70.0020 157.8580 0002857 267.6521  92.4311 14.98341318 46129,6950.158,96.106,574.009,570.037,0.0
56494.0,STARLINK-5530,PAYLOAD,2024-03-04 15:58:49,14.98346466,0.0002984,70.0018,157.6905,268.0269,92.0548,0.00013136,1.475e-05,0.0,0 STARLINK-5530,1 56494U 23064AY  24064.66585233  .00001475  00000-0  13136-3 0  9991,2 56494  70.0018 157.6905 0002984 268.0269  92.0548 14.98346466 46497,6950.142,96.106,574.081,569.933,0.0
56494.0,STARLINK-5530,PAYLOAD,2024-03-05 14:24:45,14.98313495,0.0002927,70.001,155.334,266.6778,93.4046,-0.00017318,-2.158e-05,0.0,0 STARLINK-5530,1 56494U 23064AY  24065.60052621 -.00002158  00000-0 -17318-3 0  9993,2 56494  70.0010 155.3340 0002927 266.6778  93.4046 14.98313495 46273,6950.244,96.108,574.143,570.075,0.0
56494.0,STARLINK-5530,PAYLOAD,2024-03-05 16:00:53,14.98312427,0.0002794,70.0018,155.1668,264.611,95.473,-0.00016892,-2.107e-05,0.0,0 STARLINK-5530,1 56494U 23064AY  24065.66728725 -.00002107  00000-0 -16892-3 0  9994,2 56494  70.0018 155.1668 0002794 264.6110  95.4730 14.98312427 46649,6950.247,96.108,574.054,570.17,0.0
56494.0,STARLINK-5530,PAYLOAD,2024-03-06 11:14:29,14.98330919,0.0002932,70.0014,153.1456,266.4776,93.6048,-9.4731e-05,-1.223e-05,0.0,0 STARLINK-5530,1 56494U 23064AY  24066.46839707 -.00001223  00000-0 -94731-4 0  9993,2 56494  70.0014 153.1456 0002932 266.4776  93.6048 14.98330919 46761,6950.19,96.107,574.093,570.017,0.0
56494.0,STARLINK-5530,PAYLOAD,2024-03-06 14:26:45,14.98337028,0.000295,70.001,152.8089,269.2414,90.8407,-3.614e-05,-5.24e-06,0.0,0 STARLINK-5530,1 56494U 23064AY  24066.60191134 -.00000524  00000-0 -36140-4 0  9997,2 56494  70.0010 152.8089 0002950 269.2414  90.8407 14.98337028 46424,6950.171,96.107,574.086,569.986,0.0
56494.0,STARLINK-5530,PAYLOAD,2024-03-06 16:02:53,14.98338809,0.0003011,70.001,152.6409,270.1242,89.9572,-3.2735e-05,-4.84e-06,0.0,0 STARLINK-5530,1 56494U 23064AY  24066.66866988 -.00000484  00000-0 -32735-4 0  9990,2 56494  70.0010 152.6409 0003011 270.1242  89.9572 14.98338809 46797,6950.166,96.106,574.123,569.938,0.0
56494.0,STARLINK-5530,PAYLOAD,2024-03-07 14:28:46,14.98324247,0.0002729,70.0012,150.285,268.6646,91.42,0.00022051,2.539e-05,0.0,0 STARLINK-5530,1 56494U 23064AY  24067.60331506  .00002539  00000-0  22051-3 0  9998,2 56494  70.0012 150.2850 0002729 268.6646  91.4200 14.98324247 46571,6950.211,96.107,573.972,570.179,0.0
56494.0,STARLINK-5530,PAYLOAD,2024-03-08 11:18:30,14.98337856,0.0002606,70.0015,148.0968,261.5859,98.5004,4.4968e-05,4.44e-06,0.0,0 STARLINK-5530,1 56494U 23064AY  24068.47118995  .00000444  00000-0  44968-4 0  9994,2 56494  70.0015 148.0968 0002606 261.5859  98.5004 14.98337856 47066,6950.169,96.106,573.845,570.222,0.0
56494.0,STARLINK-5530,PAYLOAD,2024-03-09 11:20:32,14.98330214,0.0002803,70.0007,145.5713,268.7664,91.3174,-6.3683e-05,-8.53e-06,0.0,0 STARLINK-5530,1 56494U 23064AY  24069.47259397 -.00000853  00000-0 -63683-4 0  9998,2 56494  70.0007 145.5713 0002803 268.7664  91.3174 14.98330214 47216,6950.192,96.107,574.005,570.109,0.0
56494.0,STARLINK-5530,PAYLOAD,2024-03-10 11:22:32,14.9833617,0.0003029,69.9999,143.0458,270.7676,89.3136,-5.3601e-05,-7.33e-06,0.0,0 STARLINK-5530,1 56494U 23064AY  24070.47398798 -.00000733  00000-0 -53601-4 0  9995,2 56494  69.9999 143.0458 0003029 270.7676  89.3136 14.98336170 47367,6950.174,96.107,574.144,569.934,0.0
56494.0,STARLINK-5530,PAYLOAD,2024-03-11 11:24:33,14.98331281,0.0002984,70.0001,140.5219,270.2727,89.809,5.731e-05,5.91e-06,0.0,0 STARLINK-5530,1 56494U 23064AY  24071.47538623  .00000591  00000-0  57310-4 0  9990,2 56494  70.0001 140.5219 0002984 270.2727  89.8090 14.98331281 47511,6950.189,96.107,574.128,569.98,0.0
56494.0,STARLINK-5530,PAYLOAD,2024-03-11 14:36:49,14.9833204,0.0002856,70.0001,140.1852,267.8899,92.1933,6.3419e-05,6.64e-06,0.0,0 STARLINK-5530,1 56494U 23064AY  24071.60890546  .00000664  00000-0  63419-4 0  9998,2 56494  70.0001 140.1852 0002856 267.8899  92.1933 14.98332040 47179,6950.187,96.107,574.037,570.067,0.0
56494.0,STARLINK-5530,PAYLOAD,2024-03-12 11:26:34,14.98328538,0.0002838,70.0005,137.9971,270.3769,89.7065,4.1674e-06,-4.3e-07,0.0,0 STARLINK-5530,1 56494U 23064AY  24072.47678951 -.00000043  00000-0  41674-5 0  9990,2 56494  70.0005 137.9971 0002838 270.3769  89.7065 14.98328538 47663,6950.197,96.107,574.035,570.09,0.0
56494.0,STARLINK-5530,PAYLOAD,2024-03-12 21:03:23,14.98325258,0.0003373,70.0011,136.987,268.194,91.8833,-0.00032643,-3.985e-05,0.0,0 STARLINK-5530,1 56494U 23064AY  24072.87735561 -.00003985  00000-0 -32643-3 0  9998,2 56494  70.0011 136.9870 0003373 268.1940  91.8833 14.98325258 47368,6950.208,96.107,574.417,569.728,0.0
56494.0,STARLINK-5530,PAYLOAD,2024-03-13 11:28:35,14.98329719,0.0002916,70.0,135.4723,267.5668,92.5157,-1.2609e-05,-2.43e-06,0.0,0 STARLINK-5530,1 56494U 23064AY  24073.47818808 -.00000243  00000-0 -12609-4 0  9996,2 56494  70.0000 135.4723 0002916 267.5668  92.5157 14.98329719 47812,6950.194,96.107,574.085,570.032,0.0
56494.0,STARLINK-5530,PAYLOAD,2024-03-13 21:05:23,14.98361375,0.0002868,70.0011,134.4614,276.1623,83.9209,-0.00052072,-6.306e-05,0.0,0 STARLINK-5530,1 56494U 23064AY  24073.87873920 -.00006306  00000-0 -52072-3 0  9999,2 56494  70.0011 134.4614 0002868 276.1623  83.9209 14.98361375 47877,6950.096,96.105,573.954,569.968,0.0
56494.0,STARLINK-5530,PAYLOAD,2024-03-14 05:06:04,14.98328965,0.0003049,70.0,133.6211,268.9643,91.1167,2.1915e-05,1.68e-06,0.0,0 STARLINK-5530,1 56494U 23064AY  24074.21254766  .00000168  00000-0  21915-4 0  9990,2 56494  70.0000 133.6211 0003049 268.9643  91.1167 14.98328965 47920,6950.196,96.107,574.18,569.942,0.0
56494.0,STARLINK-5530,PAYLOAD,2024-03-14 06:42:12,14.98328959,0.0003064,70.0,133.4528,269.1634,90.9174,2.2051e-05,1.7e-06,0.0,0 STARLINK-5530,1 56494U 23064AY  24074.27930764  .00000170  00000-0  22051-4 0  9990,2 56494  70.0000 133.4528 0003064 269.1634  90.9174 14.98328959 47578,6950.196,96.107,574.191,569.932,0.0
56494.0,STARLINK-5530,PAYLOAD,2024-03-14 14:42:51,14.98336766,0.0003145,69.9999,132.6093,266.8381,93.2418,1.2637e-05,5.8e-07,0.0,0 STARLINK-5530,1 56494U 23064AY  24074.61310159  .00000058  00000-0  12637-4 0  9992,2 56494  69.9999 132.6093 0003145 266.8381  93.2418 14.98336766 47980,6950.172,96.107,574.223,569.851,0.0
56494.0,STARLINK-5530,PAYLOAD,2024-03-15 05:08:08,14.98280269,0.0003266,69.9999,131.0965,269.579,90.4995,-0.00053331,-6.442e-05,0.0,0 STARLINK-5530,1 56494U 23064AY  24075.21399170 -.00006442  00000-0 -53331-3 0  9999,2 56494  69.9999 131.0965 0003266 269.5790  90.4995 14.98280269 48075,6950.347,96.11,574.482,569.942,0.0
56494.0,STARLINK-5530,PAYLOAD,2024-03-15 13:08:45,14.98327108,0.0002973,70.0004,130.2554,246.9606,113.124,6.3811e-07,-8.5e-07,0.0,0 STARLINK-5530,1 56494U 23064AY  24075.54775311 -.00000085  00000-0  63811-6 0  9993,2 56494  70.0004 130.2554 0002973 246.9606 113.1240 14.98327108 48125,6950.202,96.107,574.133,570.001,0.0
56494.0,STARLINK-5530,PAYLOAD,2024-03-16 05:10:05,14.98336615,0.0002665,70.0002,128.5713,259.1917,100.8942,7.0902e-05,7.53e-06,0.0,0 STARLINK-5530,1 56494U 23064AY  24076.21534484  .00000753  00000-0  70902-4 0  9990,2 56494  70.0002 128.5713 0002665 259.1917 100.8942 14.98336615 48225,6950.172,96.107,573.89,570.185,0.0
56494.0,STARLINK-5530,PAYLOAD,2024-03-16 11:34:39,14.98315619,0.0002285,70.0006,127.8972,251.2878,108.8033,-0.00010948,-1.398e-05,0.0,0 STARLINK-5530,1 56494U 23064AY  24076.48240312 -.00001398  00000-0 -10948-3 0  9994,2 56494  70.0006 127.8972 0002285 251.2878 108.8033 14.98315619 48269,6950.237,96.108,573.69,570.514,0.0
56494.0,STARLINK-5530,PAYLOAD,2024-03-16 13:10:47,14.98320196,0.0002703,69.9996,127.7285,266.4159,93.6691,-9.3451e-05,-1.208e-05,0.0,0 STARLINK-5530,1 56494U 23064AY  24076.54916027 -.00001208  00000-0 -93451-4 0  9995,2 56494  69.9996 127.7285 0002703 266.4159  93.6691 14.98320196 47913,6950.223,96.108,573.967,570.21,0.0
56494.0,STARLINK-5530,PAYLOAD,2024-03-17 11:36:40,14.98302491,0.0002736,69.9991,125.3716,267.0634,93.0212,0.00042596,4.989e-05,0.0,0 STARLINK-5530,1 56494U 23064AY  24077.48380235  .00004989  00000-0  42596-3 0  9995,2 56494  69.9991 125.3716 0002736 267.0634  93.0212 14.98302491 48419,6950.278,96.109,574.045,570.241,0.0
56494.0,STARLINK-5530,PAYLOAD,2024-03-17 13:12:48,14.98305181,0.0002891,69.9988,125.2041,264.2195,95.8635,0.00044595,5.229e-05,0.0,0 STARLINK-5530,1 56494U 23064AY  24077.55056038  .00005229  00000-0  44595-3 0  9993,2 56494  69.9988 125.2041 0002891 264.2195  95.8635 14.98305181 48067,6950.27,96.109,574.144,570.125,0.0
